{
  "type": "FeatureCollection",
  "features": [
    {
      "type": "Feature",
      "properties": {
        "norad_id": 33986,
        "name": "COSMOS 2251 DEB",
        "group": "cosmos-2251-debris",
        "lat": -6.93938191946271,
        "lon": -52.185640870463516,
        "alt_km": 726.7622616342333,
        "timestamp": "2025-12-08T21:31:05.059729+00:00",
        "meta_object_name": "COSMOS 2251 DEB",
        "meta_object_id": "1993-036FV",
        "meta_epoch": "2025-12-08T15:43:02.680896",
        "meta_mean_motion": 14.43172345,
        "meta_eccentricity": 0.00402421,
        "meta_inclination": 74.037,
        "meta_ra_of_asc_node": 310.2595,
        "meta_arg_of_pericenter": 23.8952,
        "meta_mean_anomaly": 154.0394,
        "meta_ephemeris_type": 0,
        "meta_classification_type": "U",
        "meta_norad_cat_id": 33986,
        "meta_element_set_no": 999,
        "meta_rev_at_epoch": 87969,
        "meta_bstar": 0.001443454,
        "meta_mean_motion_dot": 4.875e-05,
        "meta_mean_motion_ddot": 0,
        "tle_line1": "1 33986U 93036FV  25342.65489214  .00004875  00000+0  14435-2 0  9997",
        "tle_line2": "2 33986  74.0370 310.2595 0040242  23.8952 154.0394 14.43172345879697"
      },
      "geometry": {
        "type": "Point",
        "coordinates": [
          -52.185640870463516,
          -6.93938191946271
        ]
      }
    },
    {
      "type": "Feature",
      "properties": {
        "norad_id": 33990,
        "name": "COSMOS 2251 DEB",
        "group": "cosmos-2251-debris",
        "lat": -63.30126265657349,
        "lon": 147.13590123131618,
        "alt_km": 939.9508038061549,
        "timestamp": "2025-12-08T21:31:05.059740+00:00",
        "meta_object_name": "COSMOS 2251 DEB",
        "meta_object_id": "1993-036FZ",
        "meta_epoch": "2025-12-08T15:50:37.647744",
        "meta_mean_motion": 13.49974865,
        "meta_eccentricity": 0.04075866,
        "meta_inclination": 73.9291,
        "meta_ra_of_asc_node": 292.5439,
        "meta_arg_of_pericenter": 313.5856,
        "meta_mean_anomaly": 230.3397,
        "meta_ephemeris_type": 0,
        "meta_classification_type": "U",
        "meta_norad_cat_id": 33990,
        "meta_element_set_no": 999,
        "meta_rev_at_epoch": 82674,
        "meta_bstar": 0.0027168327,
        "meta_mean_motion_dot": 2.872e-05,
        "meta_mean_motion_ddot": 0,
        "tle_line1": "1 33990U 93036FZ  25342.66015796  .00002872  00000+0  27168-2 0  9995",
        "tle_line2": "2 33990  73.9291 292.5439 0407586 313.5856 230.3397 13.49974865826742"
      },
      "geometry": {
        "type": "Point",
        "coordinates": [
          147.13590123131618,
          -63.30126265657349
        ]
      }
    },
    {
      "type": "Feature",
      "properties": {
        "norad_id": 33992,
        "name": "COSMOS 2251 DEB",
        "group": "cosmos-2251-debris",
        "lat": -65.28631663406344,
        "lon": -156.35431833048622,
        "alt_km": 710.5300708039003,
        "timestamp": "2025-12-08T21:31:05.059750+00:00",
        "meta_object_name": "COSMOS 2251 DEB",
        "meta_object_id": "1993-036GB",
        "meta_epoch": "2025-12-08T11:04:18.388416",
        "meta_mean_motion": 14.66161326,
        "meta_eccentricity": 0.0051624,
        "meta_inclination": 74.024,
        "meta_ra_of_asc_node": 345.9883,
        "meta_arg_of_pericenter": 105.2442,
        "meta_mean_anomaly": 8.8388,
        "meta_ephemeris_type": 0,
        "meta_classification_type": "U",
        "meta_norad_cat_id": 33992,
        "meta_element_set_no": 999,
        "meta_rev_at_epoch": 89062,
        "meta_bstar": 0.0010469614,
        "meta_mean_motion_dot": 5.846e-05,
        "meta_mean_motion_ddot": 0,
        "tle_line1": "1 33992U 93036GB  25342.46132394  .00005846  00000+0  10470-2 0  9991",
        "tle_line2": "2 33992  74.0240 345.9883 0051624 105.2442   8.8388 14.66161326890627"
      },
      "geometry": {
        "type": "Point",
        "coordinates": [
          -156.35431833048622,
          -65.28631663406344
        ]
      }
    },
    {
      "type": "Feature",
      "properties": {
        "norad_id": 33994,
        "name": "COSMOS 2251 DEB",
        "group": "cosmos-2251-debris",
        "lat": 30.147342433868193,
        "lon": 7.955639298484152,
        "alt_km": 769.3104238483356,
        "timestamp": "2025-12-08T21:31:05.059760+00:00",
        "meta_object_name": "COSMOS 2251 DEB",
        "meta_object_id": "1993-036GD",
        "meta_epoch": "2025-12-08T14:19:16.092192",
        "meta_mean_motion": 14.41211346,
        "meta_eccentricity": 0.00235116,
        "meta_inclination": 74.0422,
        "meta_ra_of_asc_node": 198.0763,
        "meta_arg_of_pericenter": 333.1501,
        "meta_mean_anomaly": 60.0283,
        "meta_ephemeris_type": 0,
        "meta_classification_type": "U",
        "meta_norad_cat_id": 33994,
        "meta_element_set_no": 999,
        "meta_rev_at_epoch": 88360,
        "meta_bstar": 0.00017108227,
        "meta_mean_motion_dot": 5.27e-06,
        "meta_mean_motion_ddot": 0,
        "tle_line1": "1 33994U 93036GD  25342.59671403  .00000527  00000+0  17108-3 0  9993",
        "tle_line2": "2 33994  74.0422 198.0763 0023511 333.1501  60.0283 14.41211346883602"
      },
      "geometry": {
        "type": "Point",
        "coordinates": [
          7.955639298484152,
          30.147342433868193
        ]
      }
    },
    {
      "type": "Feature",
      "properties": {
        "norad_id": 33995,
        "name": "COSMOS 2251 DEB",
        "group": "cosmos-2251-debris",
        "lat": -44.05477883146211,
        "lon": 110.33166384350385,
        "alt_km": 825.0936776484614,
        "timestamp": "2025-12-08T21:31:05.059771+00:00",
        "meta_object_name": "COSMOS 2251 DEB",
        "meta_object_id": "1993-036GE",
        "meta_epoch": "2025-12-08T13:22:07.258944",
        "meta_mean_motion": 14.34736924,
        "meta_eccentricity": 0.00604754,
        "meta_inclination": 74.0616,
        "meta_ra_of_asc_node": 127.0034,
        "meta_arg_of_pericenter": 142.5573,
        "meta_mean_anomaly": 217.9817,
        "meta_ephemeris_type": 0,
        "meta_classification_type": "U",
        "meta_norad_cat_id": 33995,
        "meta_element_set_no": 999,
        "meta_rev_at_epoch": 87459,
        "meta_bstar": 0.0016673943,
        "meta_mean_motion_dot": 4.8e-05,
        "meta_mean_motion_ddot": 0,
        "tle_line1": "1 33995U 93036GE  25342.55702846  .00004800  00000+0  16674-2 0  9990",
        "tle_line2": "2 33995  74.0616 127.0034 0060475 142.5573 217.9817 14.34736924874592"
      },
      "geometry": {
        "type": "Point",
        "coordinates": [
          110.33166384350385,
          -44.05477883146211
        ]
      }
    },
    {
      "type": "Feature",
      "properties": {
        "norad_id": 33999,
        "name": "COSMOS 2251 DEB",
        "group": "cosmos-2251-debris",
        "lat": 18.410208420919712,
        "lon": 52.93143825346918,
        "alt_km": 590.9363779031701,
        "timestamp": "2025-12-08T21:31:05.059781+00:00",
        "meta_object_name": "COSMOS 2251 DEB",
        "meta_object_id": "1993-036GJ",
        "meta_epoch": "2025-12-08T02:59:31.137216",
        "meta_mean_motion": 14.83205332,
        "meta_eccentricity": 0.00446114,
        "meta_inclination": 73.9193,
        "meta_ra_of_asc_node": 239.9797,
        "meta_arg_of_pericenter": 136.9278,
        "meta_mean_anomaly": 223.5405,
        "meta_ephemeris_type": 0,
        "meta_classification_type": "U",
        "meta_norad_cat_id": 33999,
        "meta_element_set_no": 999,
        "meta_rev_at_epoch": 89182,
        "meta_bstar": 0.0017772231,
        "meta_mean_motion_dot": 0.00014769,
        "meta_mean_motion_ddot": 0,
        "tle_line1": "1 33999U 93036GJ  25342.12466594  .00014769  00000+0  17772-2 0  9999",
        "tle_line2": "2 33999  73.9193 239.9797 0044611 136.9278 223.5405 14.83205332891825"
      },
      "geometry": {
        "type": "Point",
        "coordinates": [
          52.93143825346918,
          18.410208420919712
        ]
      }
    },
    {
      "type": "Feature",
      "properties": {
        "norad_id": 34001,
        "name": "COSMOS 2251 DEB",
        "group": "cosmos-2251-debris",
        "lat": 69.09279409596174,
        "lon": -22.823301581038802,
        "alt_km": 755.2624255781229,
        "timestamp": "2025-12-08T21:31:05.059791+00:00",
        "meta_object_name": "COSMOS 2251 DEB",
        "meta_object_id": "1993-036GL",
        "meta_epoch": "2025-12-08T06:49:41.535264",
        "meta_mean_motion": 14.37089874,
        "meta_eccentricity": 0.00197586,
        "meta_inclination": 74.0384,
        "meta_ra_of_asc_node": 289.7793,
        "meta_arg_of_pericenter": 11.781,
        "meta_mean_anomaly": 139.0399,
        "meta_ephemeris_type": 0,
        "meta_classification_type": "U",
        "meta_norad_cat_id": 34001,
        "meta_element_set_no": 999,
        "meta_rev_at_epoch": 88082,
        "meta_bstar": 0.0004123146,
        "meta_mean_motion_dot": 1.201e-05,
        "meta_mean_motion_ddot": 0,
        "tle_line1": "1 34001U 93036GL  25342.28450851  .00001201  00000+0  41231-3 0  9995",
        "tle_line2": "2 34001  74.0384 289.7793 0019758  11.7810 139.0399 14.37089874880820"
      },
      "geometry": {
        "type": "Point",
        "coordinates": [
          -22.823301581038802,
          69.09279409596174
        ]
      }
    }
  ]
}